city,lat,lng,name,province,street
Alcanar,40.5931525,0.5610528,Bar Montsia Mar,Tarragona,"Carrer Tarongina, 2"
Alcanar,40.5421121,0.4815368,Bar Paella,Tarragona,"Carrer del Canonge Matamoros, 7"
Alcanar,40.5438819,0.4779140999999999,Restaurant l’Esquella D’en Gaudí,Tarragona,"Carrer de l'Arquitecte Gaudí, 26"
Alcanar,40.5286499,0.5095326,Citrus del Tancat,Tarragona,C N-340 Km 1059 (Sol de Riu
Alcanar,40.5690592,0.5383998,Bar km.1065,Tarragona,"Carrer a Platja Daurada, 2"
Alcanar,40.5970428,0.5686665,Restaurante Club de Tenis Serramar,Tarragona,"Av. Mar, 9"
Alcanar,40.5421117,0.4817000999999999,Sofía Alonso Beltrán,Tarragona,"Carrer Miquel Figueres, 6"
Alcanar,40.5439446,0.4767812999999999,Restaurante L’Estona,Tarragona,"TP-3318, 54"
Alcanar,40.545144,0.4766727,Juan Pedro Lara Márquez,Tarragona,"Rda. del Remei, 73"
Alcanar,40.5430186,0.4810862999999999,"Bar Moreno, C.B",Tarragona,"Plaça Major, 2"
Alcanar,40.543279,0.4806562,Casa Kebab,Tarragona,"Plaça Major, 7"
Alcanar,40.5432533,0.4822369999999999,Serra Mar,Tarragona,"Avenida Mar, 0 S/N"
Alcanar,40.5409656,0.4815235,Restaurant Pepet,Tarragona,"Carrer de Ramon i Cajal, 37"
Alcanar,40.541031,0.4781982999999999,Andreu,Tarragona,"Avinguda de Catalunya, 4"
Alcanar,40.5417216,0.4805399999999999,Bar Abril,Tarragona,"Av. d'Abril, 9"
Alcanar,40.5451564,0.4766878,Bar Miguel,Tarragona,"Rda. del Remei, 75"
Alcanar,40.5449775,0.4830263999999999,La Llauneta de Música,Tarragona,"Carrer de les Eres, 21"
Alcanar,40.5459651,0.4765669999999999,Bar Llorens,Tarragona,"Carrer Rafel Casanova, 11"
Alcanar,40.5920457,0.5593922,Anna,Tarragona,"Av. Montsià, 23"
Alcanar,40.5405813,0.4757223,Bar Miracle,Tarragona,"Ctra. Nova, 77, 81"
Alcanar,40.5411084,0.4811727999999999,Bar la Tasca,Tarragona,"Carrer de l'Onze de Setembre, 2"
Alcanar,40.5448124,0.4777830999999999,Lo Xaflà Bar-Tapes,Tarragona,"Carrer de l'Arquitecte Gaudí, 35"
Alcanar,40.5414546,0.4806400999999999,Pa D art,Tarragona,"Avinguda de Catalunya, 60"
Alcanar,40.543044,0.4768667,Bar Restaurante Constitució,Tarragona,"Avenida De Constitució, 33"
Alcanar,40.5409368,0.4807608,Bar Lolita,Tarragona,"Carrer de l'Onze de Setembre, 7"
Alcanar,40.5435173,0.4769240999999999,Adri Bar,Tarragona,"Rda. del Remei, 48"
Alcanar,40.5409373,0.4807628,Cerveseria Lo Vermutet,Tarragona,"Carrer de l'Onze de Setembre, 7"
Alcanar,40.5698987,0.5388919999999999,Restaurante Asador Alcanar Platja,Tarragona,"Carrer Cn 340 Fonda, 9"
Alcanar,40.5444246,0.4812809999999999,Bar la bella gnocca,Tarragona,"Carrer Remei, 12-22"
Alcanar,40.5822676,0.5559257,Hotel Carlos III,Tarragona,"Carrer CN 340-Mare Nostrum, Carretera De Sant Carlos A Alcanar Playa Km4"
Alcanar,40.5455284,0.476724,Bar La Ronda,Tarragona,"Rda. del Remei, 85"
Alcanar,40.5417672,0.4832886999999999,Los Fogons de David,Tarragona,"Avinguda de Catalunya, 94"
Alcanar,40.5795495,0.5532665999999999,Lo Pati,Tarragona,"Carrer CN 340-Mare Nostrum, 24"
Alcanar,40.5420687,0.4815854,Tapes Variales Plats Combinats,Tarragona,"Carrer del Canonge Matamoros, 7"
Amposta,40.7123226,0.5771016999999999,Bar Simpatica,Tarragona,
Amposta,40.7070472,0.5798163,Basar Amposta,Tarragona,"Avinguda de la Ràpita, 111"
Amposta,40.7116844,0.5783634,Únic Restaurant | Imperio Suichy,Tarragona,"Av. Santa Bàrbara, 25"
Amposta,40.7114231,0.5773851,Amore Pizza - Doner Kebab | Soylent Green,Tarragona,"Carrer Elisabets, 20"
Amposta,40.7058786,0.5804275,Bar Restaurant La Nova Torreta,Tarragona,
Amposta,40.703898,0.57983,Bar Restaurant Bon Gust,Tarragona,"Avinguda Josep Tarradellas, 130"
Amposta,40.7133595,0.5823067,Bar Fidel,Tarragona,"Plaça de l'Aube, 8"
Amposta,40.7093097,0.5732746,Les Palmeres,Tarragona,"Prolongació de l'Avinguda Catalunya, 19"
Amposta,40.7087004,0.5799335,Prince Doner Kebab | Soylent Green,Tarragona,"Avinguda de la Ràpita, 85"
Amposta,40.7024799,0.5815085,Bar Residència L’Ullal Apasa,Tarragona,"Carrer Poble Nou del Delta, 27"
Amposta,40.7029991,0.5829306,Lo Racó de la iaia,Tarragona,"C. Sant Cristòfol, 61"
Amposta,40.6873275,0.5821483,Bar,Tarragona,"Carrer Tàmesis, 8"
Amposta,40.7137556,0.5820152,Racó Músic Bar,Tarragona,"Carrer Poador, 4"
Amposta,40.706909,0.582299,Bar Piscina Amposta,Tarragona,Carrer de França
Amposta,40.7129505,0.5782014,London Inn Amposta,Tarragona,"Carrer Navarra, 37"
Amposta,40.7074903,0.5752311999999999,Bar Nocturnal,Tarragona,"Carrer d'Amèrica, 46"
Amposta,40.7098682,0.5804467999999999,ONO POKE | Healthy Food,Tarragona,"Carrer Madrid, 5"
Amposta,40.7059282,0.5794859,De Vins,Tarragona,"Avinguda de la Ràpita, 122"
Amposta,40.7030248,0.5804779999999999,Bar Saleta2,Tarragona,"Carrer Barcelona, 123"
Amposta,40.7041047,0.5773184,Taj Mahal Bar | Restaurante,Tarragona,"Avinguda Josep Tarradellas, 162"
Amposta,40.7056548,0.5793931,Restaurant L'Antic,Tarragona,"Avinguda de la Ràpita, 128"
Amposta,40.7148882,0.5760149,Bar Cobi,Tarragona,"Carrer Juan de Àustria, 22"
Amposta,40.7107413,0.5859683,Bar Restaurant Braseria J.B.,Tarragona,"Avinguda de Sant Jaume, 47"
Amposta,40.7093543,0.5802250999999999,Bar Ratoncito Perez,Tarragona,"Carrer Toledo, 5"
Amposta,40.7126246,0.5795513999999999,Bar Coiot,Tarragona,
Amposta,40.7117314,0.5784435,Bar-Cafeteria Lo Nou Café,Tarragona,"Bar-cafeteria Lo Nou Cafe, Avinguda Sta. Bàrbara, n17"
Amposta,40.7068651,0.5789679,Bar/Cafeteria Farlopes,Tarragona,"Carrer Góngora, 43"
Amposta,40.7043116,0.5779508999999999,Bar La Graella,Tarragona,"Carrer Tenerife, 17"
Amposta,40.7117171,0.5784167,Bar Nova Gracia,Tarragona,"Av. Santa Bàrbara, 23"
Amposta,40.7126809,0.579795,Bar La Pepa,Tarragona,"Carrer Sant Antoni, 49"
Amposta,40.7043198,0.5807546,"Navarro, Durán, L.",Tarragona,"Carrer Soria, 19"
Amposta,40.7042318,0.5800158,LO TERRAT,Tarragona,"Carrer Soria, 8"
Amposta,40.7122815,0.5831843999999999,Xaioc Bar,Tarragona,"Carrer Larache, 2"
Amposta,40.7112892,0.5836316,Braseria Quixot,Tarragona,"Carrer Zamora, 20, 22"
Amposta,40.70341,0.58306,RESTAURANT JOMAR S.L.,Tarragona,"Avinguda Josep Tarradellas, 41, 43"
Amposta,40.7066237,0.5795492999999999,Bar restaurant Happy | Soylent Green,Tarragona,"Avinguda de la Ràpita, 112"
Amposta,40.7057229,0.5583895999999999,Bosc de Ribera,Tarragona,"Polígon Industrial Les Tosses, C/ Berlín, s/n"
Amposta,40.6805305,0.540087,Temps de terra,Tarragona,Finca Temps de Terra Partida de l'ametller s/n
Amposta,40.7097252,0.58043,Vintastik,Tarragona,"T, Carrer Madrid, 4"
Amposta,40.7025751,0.5802672,Cafeteria Andreea,Tarragona,
Amposta,40.704871,0.5793697999999999,Bar Delfo's Amposta,Tarragona,"Carrer las Palmas, 10"
Amposta,40.7115776,0.5782906,Fast Food Ampostacos,Tarragona,"Av. Santa Bàrbara, 37"
Amposta,40.712304,0.5845819,Lo Balconet Craft Beer,Tarragona,"Passeig del Riu, 1"
Amposta,40.7038545,0.5812231,La Dolce Vita | La cosa nostra,Tarragona,"Avinguda Josep Tarradellas, 108"
Amposta,40.7117673,0.5786231,SALATS-LA BACALLANERIA. Tienda y Terraza Degustación,Tarragona,"Av. Santa Bàrbara, 21"
Amposta,40.7113015,0.5782596,Som de Tapes i Vins,Tarragona,"L'estel, 33"
Amposta,40.7086254,0.5753667,Sandra's Bar-Plats Combinats,Tarragona,"Carrer d'Amèrica, 28"
Amposta,40.7103824,0.5798422,Trattoria Nostra | Soylent Green,Tarragona,"Avinguda de la Ràpita, 40"
Amposta,40.702259,0.5587911999999999,Restauradors del Montsià S.L.,Tarragona,"C/ Berlín, 0"
Amposta,40.7122008,0.5781016,Smile Coffee,Tarragona,"Carrer Primer de Maig, 5"
Amposta,40.7035058,0.5833401,Hotel Ciutat d'Amposta,Tarragona,"Avinguda Josep Tarradellas, 41"
Amposta,40.7128679,0.5836001,La botiga del riu,Tarragona,"Avinguda de Sant Jaume, 1"
Amposta,40.7077813,0.5798717999999999,Kebaberia Omar | Soylent Green,Tarragona,"Avinguda de la Ràpita, 99"
Amposta,40.7108433,0.5781394,Litros,Tarragona,"Carrer del Mestre Francesc Casanovas, 38"
Amposta,40.7093027,0.5796969,Alfa Industries - Cafeteria,Tarragona,
Amposta,40.6585821,0.674864,Restaurant La Casa de Fusta,Tarragona,"Partida L'Encanyissada, s/n"
Amposta,40.713231,0.578893,La Sifoneria,Tarragona,"Carrer Tarragona, 4"
Amposta,40.7041077,0.5786389,Telepizza Amposta - Comida a Domicilio,Tarragona,"Av. Catalunya, 37"
Amposta,40.7088523,0.5785712,Troia,Tarragona,"Carrer Menéndez Pelayo, 11"
Amposta,40.7103824,0.5798422,Bar Simón,Tarragona,"Avinguda de la Ràpita, 40"
Amposta,40.7099119,0.5810546,Atipic,Tarragona,"Carrer Mestre Sunyer, 26"
Amposta,40.7031976,0.5790837,Buffet Wok Amposta,Tarragona,"Av. Catalunya, 19"
Amposta,40.7059116,0.5804058999999999,L'arrosseria,Tarragona,"Carrer Barcelona, 54"
Amposta,40.7080529,0.5783861,Amor llatí,Tarragona,"Carrer Menéndez Pelayo, 28"
Amposta,40.7110287,0.5801151,Bipolar,Tarragona,"Avinguda de la Ràpita, 35"
Amposta,40.7122425,0.5802963,Café Campari,Tarragona,"Carrer de Corsini, 65"
Amposta,40.7123759,0.5780792,Agrapats,Tarragona,"Carrer Tarragona, 32"
Amposta,40.7087241,0.5743242,Pepe Pepito Palote,Tarragona,"Av. Catalunya, 117"
Amposta,40.7020302,0.5785388,Golden River,Tarragona,"C. Sant Cristòfol, 149"
Amposta,40.7049448,0.5782765999999999,Casa Rafael,Tarragona,"Av. Catalunya, 45"
Amposta,40.7042313,0.5797957,BAR RAMONA,Tarragona,Carrer Soria
Amposta,40.7127469,0.5804364,Il Viale by Canya-illa,Tarragona,"Carrer Major, 15"
Amposta,40.7120969,0.5785562,llesqueria gelateria lo mercat,Tarragona,"Avinguda Alcalde Palau, 70"
Amposta,40.7122308,0.5832199,Xaloc Bar,Tarragona,"Carrer Larache, 2"
Amposta,40.7126072,0.5765739,Mil·leni,Tarragona,"Carretera Simpàtica, 26"
Amposta,40.6452924,0.7177302999999999,Partida de La Tancada,Tarragona,Carr. de les Salines al Poblenou del Delta
Amposta,40.7015587,0.5829858,Asador Amposta ( De Santi),Tarragona,"Carrer Mas de Barberans, S/N"
Amposta,40.7080857,0.5743216999999999,Lo Carrilet d'Amposta,Tarragona,"Carrer Brasil, 14"
Amposta,40.7131676,0.5787169999999999,Chicharrones al Barril,Tarragona,"Carrer Tarragona, 8"
Amposta,40.7017926,0.5771016999999999,Bar Restaurante Braseria Jimmy's,Tarragona,"C. Sant Cristòfol, 175"
Amposta,40.7017926,0.5771016999999999,ASADOR JIMMY'S,Tarragona,"C. Sant Cristòfol, 175"
Deltebre,40.7114868,0.7392634,Ristorante La Dolce Vita,Tarragona,"Carrer Trinquet, 89"
Deltebre,40.723903,0.6818598,Cafetería Bar Restaurante Lo Mirador,Tarragona,"Carrer Reis Catòlics, 40-42"
Deltebre,40.7118905,0.7340683,Restaurant Lo Transbordador,Tarragona,Carrer Balada
Deltebre,40.7197405,0.7359186,Carrer Lovas Companies,Tarragona,"Carrer Ramón y Cajal, 57"
Deltebre,40.7187515,0.7355378,Bar Restaurant de tots edades N40,Tarragona,Carrer Ramón y Cajal
Deltebre,40.7254936,0.6906836,La Maison,Tarragona,"Av. Colom, 60"
Deltebre,40.7251934,0.7195100999999999,Els Arcs,Tarragona,"TV-3454, 12"
Deltebre,40.718367,0.7351299,Cafeteria Restaurant Casa Nicanor,Tarragona,"Carrer Major, 22"
Deltebre,40.7143065,0.7154408,Restaurant l'Arròs,Tarragona,"Carrer Verge del Carme, 40"
Deltebre,40.7210249,0.7476668999999999,Restaurante @ Delta Hotel,Tarragona,"Avinguda Canal, S/N"
Deltebre,40.7201749,0.7340059,Cafè Clàssic,Tarragona,"Av. Esportiva, 72"
Deltebre,40.7147535,0.7377165,Taberna Racó De Bomba,Tarragona,"Carrer Trinquet, 45"
Deltebre,40.7163623,0.7354908,Bar Bugui,Tarragona,"Carrer Comerç, 16"
Deltebre,40.7230236,0.7005376999999999,Irish Pub,Tarragona,"Avinguda Germans Carsi, 37"
Deltebre,40.7146641,0.7490108999999999,Heladeria Pelegri,Tarragona,"Avinguda de les Goles de l'Ebre, 421"
Deltebre,40.7204267,0.7346412999999999,9salitre,Tarragona,"Av. Esportiva, 66"
Deltebre,40.7203017,0.7346417,Bar la tropa Alcanar,Tarragona,"Carrer Xerta, 2"
Deltebre,40.7240179,0.6817749,El Mirador Del Ebro,Tarragona,"Carrer Reis Catòlics, 40, 42"
Deltebre,40.7286303,0.6792562999999999,lo MUT restaurant,Tarragona,"TV-3454, Km 8,5"
Deltebre,40.7203117,0.7358467,Pizzería Moré,Tarragona,"Av. Esportiva, 45"
Deltebre,40.7194444,0.7108333,Taverna Rialto,Tarragona,"Av. Ntra. Sra. de l'Assumpció, 125"
Deltebre,40.7167939,0.736918,Sindicat Gastrobar,Tarragona,"Avinguda de les Goles de l'Ebre, 208"
Deltebre,40.7196859,0.7297178,La Cuineta d'en Sergi,Tarragona,"Carrer Madrid, 4"
Deltebre,40.7202088,0.7282131,La Pedrera,Tarragona,"Avinguda de les Goles de l'Ebre, 56"
Deltebre,40.723569,0.6999413,Bar 9 Deltebre,Tarragona,"Avinguda Germans Carsi, 36"
Deltebre,40.7209534,0.7476921999999999,Delta Hotel,Tarragona,"avinguda del canal, S/N"
Deltebre,40.7201025,0.7343322,Sushi M.C.,Tarragona,"Av. Esportiva, 59"
Deltebre,40.7194686,0.7378180999999999,CHARA,Tarragona,"Carrer Estació, 50"
Deltebre,40.7227875,0.7148823999999999,Lo Furo,Tarragona,"Avinguda de la Pau, 193"
Deltebre,40.7173963,0.733781,Bar La Lluna,Tarragona,"Avinguda de les Goles de l'Ebre, 156"
Deltebre,40.723078,0.7250535,Lo Bar Del Txato,Tarragona,"Avinguda de les Goles de l'Ebre, 11"
Deltebre,40.7226773,0.7000289,Restaurant New Gastro,Tarragona,"Carrer Segre, 13"
Deltebre,40.7212388,0.7176492,el petit bosch,Tarragona,
Deltebre,40.7235343,0.6999599999999999,Cafeteria Bar9 pizzeria creperia,Tarragona,"Avinguda Germans Carsi, 36"
Deltebre,40.7249078,0.7066486,Ebre Pàdel,Tarragona,"Avinguda de la Pau, 101C"
Deltebre,40.7184305,0.7367667,Tasca Tres Cantons,Tarragona,"Carrer Estació, 23"
Deltebre,40.7202371,0.7352894,Bonsai Lounge Bar,Tarragona,"Av. Esportiva, 53"
Deltebre,40.7179599,0.8428631999999999,Port De Riumar,Tarragona,"Urb. Riomar III-J, 6"
Deltebre,40.7197129,0.7296256999999999,Bar llesqueria La Sort,Tarragona,"Carrer Madrid, 4"
Deltebre,40.7180556,0.7308333,Gràcia Restaurant,Tarragona,"Av. Robert Graupera, 9"
Deltebre,40.7184807,0.7220816,Bar restaurante graupera,Tarragona,"Av. Robert Graupera, 135"
Deltebre,40.7324383,0.8309120999999999,Chiringuito Glops,Tarragona,"Urb. Riomar IV-F, 3"
Deltebre,40.7130592,0.8341422,Pas de Buda,Tarragona,"T-340, 19"
Deltebre,40.7130872,0.8340358,Embarcadero Ca Nuri,Tarragona,"T-340, 19"
Deltebre,40.7160923,0.7361487,Bar cafeteria Mousse,Tarragona,Carrer Sebastià Joan Arbó
Deltebre,40.7198058,0.7251812,La Volta al Mon en 80 Sabors,Tarragona,"Av. Generalitat, 28"
L'Aldea,40.74967,0.6230599,Restaurante Bar Podium,Tarragona,"Carrer Sant Genís, 31"
L'Aldea,40.74869,0.62466,Bar Sport,Tarragona,"Avinguda Catalunya, 322"
L'Aldea,40.7432771,0.6142833999999999,Bar Al Punt,Tarragona,"Avinguda Catalunya, 137"
L'Aldea,40.7530118,0.6067956,Restaurante Exit l'Aldea,Tarragona,"Polígono de Mercaderies Carretera Nacional 235, km 11,5"
L'Aldea,40.7652334,0.6271036,Caravan food,Tarragona,QJ8G+3R
L'Aldea,40.7414184,0.6108867,Restaurant Español,Tarragona,"Avinguda Catalunya, 73"
L'Aldea,40.7487721,0.6222854999999999,Restaurant Pizzeria Les Xiques,Tarragona,"Carrer Sant Ramon, 5"
L'Aldea,40.7448124,0.6212265,La Llar Hector Roda,Tarragona,"Avinguda Francesc Robert Graupera, s/n"
L'Aldea,40.7431337,0.6140188,Bar Societat,Tarragona,"Avinguda Catalunya, 131"
L'Aldea,40.7491917,0.6256295,Bar Andre,Tarragona,"Avinguda Catalunya, 342"
L'Aldea,40.7513999,0.6278899,Restaurant Bar El Pescador,Tarragona,"Avinguda Catalunya, 397"
L'Aldea,40.7530167,0.6072683,EXIT Área de servicio,Tarragona,"Unnamed Road, 43896"
L'Aldea,40.7535629,0.5977057,Masia Pla dels Catalans,Tarragona,"Ctra. Tortosa - L'Aldea, Km 11.5,"
L'Aldea,40.7646306,0.6288549999999999,Actays Rest,Tarragona,"T, Autop. del Mediterráneo"
L'Aldea,40.7646641,0.6279809,Àrea de Servei Baix Ebre,Tarragona,Autopista del Mediterráneo km 317
L'Aldea,40.7504857,0.6270022,Restaurant la Vaqueria,Tarragona,"Avinguda Catalunya, 373"
La Ràpita,40.6112599,0.579299,RESTAURANT EL BAR DEL CLUB,Tarragona,"Carrer Delícies, 32"
La Ràpita,40.6212169,0.5909413,Bur West,Tarragona,"Av. dels Esports, 7"
La Ràpita,40.6215022,0.5922476999999999,Bar-Ça Marín,Tarragona,"Carrer de Sant Joaquim, 16"
La Ràpita,40.6179823,0.5908884999999999,J Chalé Escrihuela,Tarragona,"Carrer Comte de Montemolín, 40"
La Ràpita,40.6191843,0.5935321,Restaurante Ancora,Tarragona,"Carrer de l'Arsenal, 31"
La Ràpita,40.6117777,0.5856418,Lo Faro,Tarragona,Carrer Sant Isidre
La Ràpita,40.6184569,0.5885545,La Tasca de Gil,Tarragona,"Av. Constitució, 50"
La Ràpita,40.6198431,0.5947349,Restaurant Casa Asmundo,Tarragona,"Carrer de Jesús, 4"
La Ràpita,40.6185236,0.5901468,Frankfurt Gol,Tarragona,"Carrer Sant Isidre, 70"
La Ràpita,40.6167449,0.5922759,"Freddy, caliu familiar",Tarragona,"Av. Constitució, 1"
La Ràpita,40.6201495,0.5951873999999999,La pita,Tarragona,"Carrer Bisbe Aznar, 2"
La Ràpita,40.6183365,0.5950525,Pedro Lloris Ballester,Tarragona,"Carrer de la Dàrsena, 14"
La Ràpita,40.620103,0.5958285,Sardegna,Tarragona,"Carrer de Sant Rafel, 9"
La Ràpita,40.6151247,0.5889672,Restaurant TT Taperia,Tarragona,"Avinguda Pare Castro, 14, Baixos"
La Ràpita,40.6181725,0.5967809,Numma Restaurant,Tarragona,"Passeig Marítim, s/n"
La Ràpita,40.6187096,0.590281,Bar Lo Pepet,Tarragona,"Carrer Sant Isidre, 64"
La Ràpita,40.5803557,0.6050359,BahiaMar Grup Xiringuito de la Costa,Tarragona,
La Ràpita,40.6184795,0.5885172,Lo Racó Del Pastisset,Tarragona,"Av. Constitució, 52"
La Ràpita,40.6200967,0.5957983,La Tasca Del Xicago,Tarragona,"Carrer de Sant Rafel, 11"
La Ràpita,40.6161372,0.5901326,Restaurant Bar El Parque,Tarragona,"Plaça de Lluís Companys, 19"
La Ràpita,40.6184383,0.5922710999999999,Royal Food el mejor sabor,Tarragona,"Carrer d'en Gorria, 7"
La Ràpita,40.617939,0.5938922999999999,Marieta Taperia,Tarragona,"Carrer de la Vista Alegre, 18"
La Ràpita,40.6200157,0.5925151,Sibarita,Tarragona,"Plaça de Carles III, 15"
La Ràpita,40.6200438,0.5924761,Lo Nou Cafè,Tarragona,"Plaça de Carles III, 14"
La Ràpita,40.6154286,0.5898901999999999,Bar restaurant El Maset,Tarragona,"Plaça de Lluís Companys, 6"
La Ràpita,40.6149754,0.5885697,Dinca Laura Elena,Tarragona,"Carrer de Ramon das Neves, 2"
La Ràpita,40.6207941,0.5916944,Marisqueria Enrique,Tarragona,"Carrer de Sant Sebastià, 14"
La Ràpita,40.6161473,0.5930109,Meeting point Eufòn8c,Tarragona,Avinguda dels Alfacs
La Ràpita,40.6183495,0.5926916999999999,Agustín Rogelio Pascual Montañés,Tarragona,"Carrer de l'Alba, 7"
La Ràpita,40.6182983,0.5927983,L'estriu Café Bar,Tarragona,"Carrer de l'Alba, 5"
La Ràpita,40.6189836,0.5907631999999999,Bar Sant Carles,Tarragona,"Carrer Sant Isidre, 33"
La Ràpita,40.6213701,0.5930029,Bar BBT Otra,Tarragona,"Carrer de Sant Joaquim, 4"
La Ràpita,40.6193904,0.5924587,La taberna cipi,Tarragona,Carrer d'en Gorria
La Ràpita,40.6096072,0.5869038999999999,La Vela al Vent,Tarragona,"Passeig Marítim, 80"
La Ràpita,40.6197444,0.5930305,Bar Chim,Tarragona,"Plaça de Carles III, 38, 44"
La Ràpita,40.6204924,0.5896357,La subasta,Tarragona,"Carrer del Marquès de Valterra, 43"
La Ràpita,40.619835,0.591073,Lo Barril,Tarragona,"Carrer Sant Isidre, 30"
La Ràpita,40.6202244,0.5918549,La cresta surf bar,Tarragona,"Carrer de la Constància, 5"
La Ràpita,40.6118884,0.5857411,Marya's Bar,Tarragona,"Carrer Sant Isidre, 199"
La Ràpita,40.6193199,0.5957333,MARIA des de 1941,Tarragona,"Carrer del Carme, 2"
La Ràpita,40.6190486,0.5907363,Bar Catalunya,Tarragona,"Carrer Sant Isidre, 31"
La Ràpita,40.6182964,0.5902482,Bar Punxa'm Pinxo,Tarragona,"Carrer Sant Isidre, 47"
La Ràpita,40.6140529,0.5928960999999999,Xiringuito Garbí lo del Mig,Tarragona,Platja Parc de Garbí
La Ràpita,40.6068687,0.5839213,Xiringuito Delicies.Beach-Bar,Tarragona,Platja Delicies
La Ràpita,40.6170164,0.5890181,Restaurant Bonsai,Tarragona,"Carrer Sant Isidre, 102"
La Ràpita,40.6136125,0.5899865,Restaurant Miami Can Pons,Tarragona,"Passeig Marítim, 20"
La Ràpita,40.6122817,0.5854024999999999,Hotel Restaurant Can Batiste,Tarragona,"Carrer Sant Isidre, 204"
La Ràpita,40.6105314,0.5876695,Lo Xiringuito d'Imma,Tarragona,"Passeig Marítim, 68"
La Ràpita,40.6148788,0.5876153,Taj Mahal Restaurant,Tarragona,"Carrer Sant Isidre, 129"
La Ràpita,40.6166352,0.5915128,Tapasanta,Tarragona,"Carrer Cervantes, 2"
La Ràpita,40.6186055,0.590135,Cinteta Gastrobar,Tarragona,"Carrer Sant Isidre, 68"
La Ràpita,40.6204924,0.5896357,Casa Amadeu,Tarragona,"Carrer del Marquès de Valterra, 41"
La Ràpita,40.6189107,0.5944529,Can Ramonet S.L.,Tarragona,"l'Arsenal, Carrer de l'Arsenal, 16"
La Ràpita,40.6193308,0.5922444,Taberna Porxes,Tarragona,"Plaça de Carles III, 22"
La Ràpita,40.6174508,0.5951333,Taberna Dalmau,Tarragona,"Avinguda dels Alfacs, Local 14"
La Ràpita,40.6154986,0.5880938,La Nova,Tarragona,"Carrer Sant Isidre, 115"
La Ràpita,40.6156179,0.5899544999999999,Restaurant Braseria Elena,Tarragona,"Plaça de Lluís Companys, 1"
La Ràpita,40.6207893,0.6447523,Musclera l'avi Agusti,Tarragona,Muelle de Cruceros Recreativos
La Ràpita,40.6148166,0.5936163999999999,Vermuteria bonmarisc,Tarragona,"Parc de Garbí, 0"
La Ràpita,40.6183662,0.5882248999999999,Tabu Bar Cafeteria Cocteleria gin tònic,Tarragona,"Av. Constitució, 53"
La Ràpita,40.6194803,0.5945163,Chipi Taberna,Tarragona,"Carrer de Sant Francesc, 14"
La Ràpita,40.6200648,0.591224,Bar Restaurant STELLA,Tarragona,"Carrer Sant Isidre, 18"
La Ràpita,40.6200157,0.5925152,La Andaluza Low Cost,Tarragona,"Plaça de Carles III, 15"
La Ràpita,40.6161098,0.5922398999999999,Lo xibec,Tarragona,Avinguda dels Alfacs
La Ràpita,40.6227951,0.6205769,La Cabanya xiringuito,Tarragona,"Carr. de Poble Nou, km2"
La Ràpita,40.6189461,0.594222,RESTAURANT SUIS,Tarragona,"Carrer de la Mare de Déu de Montserrat, 7"
La Ràpita,40.6190558,0.5926391999999999,PIZZERIA LOS GEMELOS,Tarragona,Plaça de Carles III
La Ràpita,40.6091099,0.586631,xiringuito basilios,Tarragona,"Carrer del Migjorn, 21"
La Ràpita,40.6175537,0.5841467,Restaurant Espanyol,Tarragona,"Avinguda Catalunya, 53"
La Ràpita,40.6183053,0.5902961999999999,Lo Do Coca,Tarragona,"Carrer de Jaume I el Conqueridor, 57"
La Ràpita,40.618328,0.5865085999999999,Bar Casal municipal del Jubilat,Tarragona,"Avinguda Jacint Verdaguer, 4"
La Ràpita,40.6160559,0.5888196,Bar restaurante Jordi,Tarragona,"Carrer Joan Tibau, 22"
La Ràpita,40.6195669,0.5938008,Restaurant El Caliu,Tarragona,"Plaça del Coc, 11"
La Ràpita,40.6083747,0.5808578,Restaurant Mar de Foc,Tarragona,"Av. dels Països Catalans, 34"
La Ràpita,40.6111699,0.5794192,La dolce Vita Club Esportiu Johnny Rotten,Tarragona,Carrer de les Delícies
La Ràpita,40.6174216,0.595388,Lo Cafè del Port,Tarragona,"Moll Portuaria, 3"
La Ràpita,40.6171982,0.5868992,L'Aixolet Cuina,Tarragona,"Plaça Barranc dels penjats, 8"
La Ràpita,40.6207927,0.5896594,Bar La Lluna,Tarragona,"Carrer de la Constància, 49"
La Ràpita,40.6224244,0.5938006,Cal Manú,Tarragona,"Carrer de Sant Josep, 37"
La Ràpita,40.6182451,0.5918664,La Pensió,Tarragona,"Carrer d'en Gorria, 18"
La Ràpita,40.6168594,0.5948975,Bar Nàutic S.L.,Tarragona,"Carrer de la Dàrsena, 0"
La Ràpita,40.6102334,0.5872891,Restaurant les Palmeres,Tarragona,"Passeig Marítim, 76"
La Ràpita,40.6186394,0.5874682999999999,Bar Granja Guardiola LLESQUERIA,Tarragona,"Av. Constitució, 65"
Les Cases d'Alcanar,40.5534485,0.5319547,Racó del Port,Tarragona,"Carrer de Lepanto, 41"
Les Cases d'Alcanar,40.5549118,0.5281102999999999,La Graella Bar Restaurant,Tarragona,"Carrer Roger de Llúria, 2"
Les Cases d'Alcanar,40.5543872,0.5284930999999999,Lo Xaloquet,Tarragona,"Carrer de Trafalgar, 77"
Les Cases d'Alcanar,40.5517527,0.5299007,El Faro de Les Cases/Casa Gemma,Tarragona,"Carrer de Lepanto, 20"
Les Cases d'Alcanar,40.5515389,0.5297444,Mesón del Mar,Tarragona,"Carrer de Lepanto, 40"
Les Cases d'Alcanar,40.5506608,0.5291908,pub bar Castor,Tarragona,"Carrer de Lepanto, 50"
Les Cases d'Alcanar,40.5487835,0.5270041999999999,Lo Marjal Restaurant,Tarragona,"Espagnep, Av. del Marjal"
Les Cases d'Alcanar,40.5534511,0.5314335,The Red Devil,Tarragona,"Carrer Joan Miró, 15"
Les Cases d'Alcanar,40.5530438,0.5312599,La Mar,Tarragona,"Carrer del Pou, 11"
Les Cases d'Alcanar,40.5523737,0.5304040999999999,Sabors D'aquí,Tarragona,"Carrer de Lepanto, 6"
Les Cases d'Alcanar,40.5514007,0.5295892999999999,Cafe Del Mar La Lluna (Arrossos),Tarragona,"Carrer de Lepanto, 42"
Les Cases d'Alcanar,40.5535553,0.5295890999999999,Bar Columbretes,Tarragona,"Carrer de Trafalgar, 43"
Les Cases d'Alcanar,40.5539008,0.5309486999999999,Can Manel,Tarragona,"Carrer Gravina, 2"
Les Cases d'Alcanar,40.5530935,0.5288457999999999,Lo Taulell de Maria Jose,Tarragona,"Carrer Hernán Cortés, 1"
Les Cases d'Alcanar,40.5529499,0.5311433999999999,Gelateria La Vela,Tarragona,Carrer del Pou
Les Cases d'Alcanar,40.5530982,0.5311144,Restaurant Lo Pouet,Tarragona,"Carrer del Pou, n° 5"
Les Cases d'Alcanar,40.5538957,0.5300093,La Boti,Tarragona,"Carrer Isaac Peral, 12"
Les Cases d'Alcanar,40.5523805,0.5304007,Pòsit de pescadors Sant Pere,Tarragona,"Carrer de Lepanto, 6"
Les Cases d'Alcanar,40.5529313,0.5302714,Les Barques Can Joan,Tarragona,"Plaça de Sant Pere, 6"
Les Cases d'Alcanar,40.556901,0.53215,Camping Cases,Tarragona,"N-340, km 1063"
Les Cases d'Alcanar,40.5543939,0.5284555,Restaurante Casa José,Tarragona,"Carrer de Trafalgar, 77"
Les Cases d'Alcanar,40.5522039,0.5288089,Apartament Alcanar,Tarragona,Carrer dels Pescadors
Tortosa,40.8163032,0.5125604,Rostisseria La Cata,Tarragona,"Av. Ports Tortosa-Beseit, 3"
Tortosa,40.814831,0.5167773,Al bar del ñoño,Tarragona,"Carrer Alfara de Carles, 26"
Tortosa,40.7982118,0.5254215,Bar Can Sol,Tarragona,"C. Barcelona, 143"
Tortosa,40.8112633,0.5206613999999999,Bar Restaurant La Tertúlia,Tarragona,"Plaça d'Espanya, 11"
Tortosa,40.8049375,0.5184343,La Sirga,Tarragona,"Carrer de Sebastià Juan Arbó, 0"
Tortosa,40.8104518,0.5197469,"Pacos Alqueza, tasca",Tarragona,Plaça de Barcelona
Tortosa,40.8085677,0.5203308999999999,La Ribera,Tarragona,"Av. de la Generalitat, 77"
Tortosa,40.8167432,0.5121329,Bar Restaurant Castells,Tarragona,"Av. Ports Tortosa-Beseit, 8"
Tortosa,40.8043572,0.5177319,Quadrat gastrobar,Tarragona,"Passeig de Joan Moreira, número 23"
Tortosa,40.8144846,0.5179378,Bar restaurant 22,Tarragona,"Carrer de València, 12"
Tortosa,40.8082037,0.5202995,Bar Nou Restaurant,Tarragona,"Av. de la Generalitat, 87"
Tortosa,40.8152164,0.5168039,XampuXampany,Tarragona,"Av. de Catalunya, 41"
Tortosa,40.8129391,0.5232879,Restaurant La Vegueria,Tarragona,"Carrer de Montcada, 21"
Tortosa,40.8073028,0.5207814,Restaurant Nevada,Tarragona,"Carrer del Comte Bañuelos, 11"
Tortosa,40.8141566,0.5170954,Supersa,Tarragona,"avda. cristobal colon, 19"
Tortosa,40.815129,0.5240215,Parador de Tortosa,Tarragona,"Castillo de la Zuda, s/n"
Tortosa,40.8077091,0.5204631,Bar Soria,Tarragona,"Av. de la Generalitat, 99"
Tortosa,40.8165117,0.5127541,Restaurant SOM,Tarragona,"Plaça de la Corona d'Aragó, 5"
Tortosa,40.8171616,0.5168292999999999,Restaurant lo Llaüt,Tarragona,"Carrer del Comerç, 41"
Tortosa,40.8080844,0.5102943999999999,Bar Estadi,Tarragona,"Unnamed Road, 43500"
Tortosa,40.8144976,0.5153862,Khan's 2,Tarragona,"Carrer d'Hernán Cortés, 3"
Tortosa,40.8069999,0.5204238,CHICKEN HOT,Tarragona,"Av. de la Generalitat, 117"
Tortosa,40.8094339,0.520516,Bar Galerías,Tarragona,"Carrer de Ramon Berenguer IV, 11"
Tortosa,40.8058063,0.5104421,"Canchas De Voley, Chupito",Tarragona,"C-42, 493"
Tortosa,40.8187005,0.5227831,Petit Bar,Tarragona,"Av. de Remolins, 26"
Tortosa,40.8153899,0.522215,Restaurant Matadero,Tarragona,"Rambla Felip Pedrell, 94"
Tortosa,40.8347545,0.4991507999999999,EQUITOR,Tarragona,"Partida Sant Bernabe, 466"
Tortosa,40.8165146,0.5129871,Hotel SB Corona Tortosa,Tarragona,"Plaça de la Corona d'Aragó, 5"
Tortosa,40.7765957,0.5355989999999999,Hotel Restaurante L Ardiaca,Tarragona,Poligono
Tortosa,40.8056244,0.5181275,Restaurant Itzurun by Paco's,Tarragona,"Passeig de Joan Moreira, 13"
Tortosa,40.819293,0.523891,Estación de servicio Cepsa SERVIBENZI,Tarragona,"Rambla Felip Pedrell, 168"
Tortosa,40.8103963,0.5215673,Los Banys,Tarragona,"Carrer de Ricard Cirera, 5, 7"
Tortosa,40.7991295,0.5196448,Cafereria 13,Tarragona,"Plaça de Mossèn Ovidio Tobias, 2"
Tortosa,40.813546,0.5221688999999999,Sabor a Tango,Tarragona,"Carrer de la Rosa, 14"
Tortosa,40.8152129,0.5222933,Bar Bayerry,Tarragona,"Carrer Santa Anna, 9"
Tortosa,40.812315,0.5211266999999999,Henderson,Tarragona,Av. de la Generalitat
Tortosa,40.8187093,0.5228655,Bar Blackjat,Tarragona,"Av. de Remolins, 26"
Tortosa,40.8076521,0.5198382,Restaurant El Parc Tortosa,Tarragona,"Av. de la Generalitat, 72"
Tortosa,40.8157398,0.5142685,Wei Heng Tai Kang Restaurant,Tarragona,"Av. de Catalunya, 81"
Tortosa,40.8146836,0.5198364,Restaurante Coctelería Xapla,Tarragona,"Passeig de l'Ebre, 2"
Tortosa,40.8104312,0.5205657,Ginebar Internacional Sl,Tarragona,"Plaça de Ramon Cabrera, 5"
Tortosa,40.8085987,0.5203551,Bokatines Parque,Tarragona,"Av. de la Generalitat, 77"
Tortosa,40.813549,0.5248295,Restaurant Tasca Bohèmia,Tarragona,"Carrer de l'Escorxador, 14"
Tortosa,40.8178194,0.5223559,Bar boka,Tarragona,"Av. de Remolins, 16-18"
Tortosa,40.8041637,0.5217524,Bar Mike,Tarragona,"Carrer d'Adrià d'Utrecht, 7, Baixos"
Tortosa,40.8147201,0.5220372999999999,Lo Portal de Tamarit,Tarragona,"Costa dels Capellans, 3"
Tortosa,40.8107666,0.5196178,BAR LAURA,Tarragona,"Plaça de Barcelona, Casella 62"
Tortosa,40.8069457,0.3367829,Restaurant del Port,Tarragona,"Partida los Puertos, 18"
Tortosa,40.8147374,0.5184657,Poseidon Bar,Tarragona,"Av. de Catalunya, 13"
Tortosa,40.8157643,0.5141989,Bar Cafeteria Guo,Tarragona,"Av. de Catalunya, 81"
Tortosa,40.8048588,0.5174447,Bar Toledo's,Tarragona,"Passeig de Joan Moreira, 20"
Tortosa,40.8082402,0.5203199,Salamandra,Tarragona,"Av. de la Generalitat, 85"
Tortosa,40.764626,0.569788,Estación de servicio Cepsa CAMPREDO-EBRE,Tarragona,C-42 PK: 5
Tortosa,40.812578,0.5214849,Cafetería Bar Mowgly,Tarragona,"Calle De Macía, 2"
Tortosa,40.8147575,0.5458594,Lo Racó de MigCamí,Tarragona,"Ctra. de la Simpàtica, 101"
Tortosa,40.813707,0.5218514,Forn de la Canonja,Tarragona,"Carrer de les Taules Velles, 5, 7-9"
Tortosa,40.8110984,0.5200665,Bar PAQUITA,Tarragona,Mercat Central
Tortosa,40.8130499,0.51501,MALLA-BAR,Tarragona,"Av. de l'Estadi, 13"
Tortosa,40.8132969,0.5511142,La Brasa de l'ermita de Mig Camí,Tarragona,Ctra. de la Simpàtica
Tortosa,40.815835,0.5138522,Bar Restaurant Braseria,Tarragona,"Av. de Catalunya, 85"
Tortosa,40.8124801,0.5223211999999999,Baiga Comunication S.L.,Tarragona,"Carrer de Montcada, 5"
Tortosa,40.8031562,0.5208591,Bar Osvan Temple,Tarragona,"Carrer de Mossèn Manyà, 5"
Tortosa,40.8043077,0.5217054,Char's Bar,Tarragona,Carrer d'Adrià d'Utrecht
Tortosa,40.8150289,0.51766,Tapitas,Tarragona,"Av. de Catalunya, 27"
Tortosa,40.8171411,0.5241405,Bar La Plaça Remolins,Tarragona,"Plaça de la Immaculada, 4"
Tortosa,40.803341,0.5192,Panadería Alqueza,Tarragona,"Enric d'Ossó i Cervelló, 24"
Tortosa,40.8161877,0.5136022,Cap de Ball Braseria 4 Camins,Tarragona,"Plaça de la Corona d'Aragó, s/n"
Tortosa,40.8104745,0.5214771,Cafe Saula,Tarragona,Carrer de Ricard Cirera
Tortosa,40.812557,0.5225168,Bar Restaurant La Fusteria,Tarragona,"Carrer de Montcada, 9"
Tortosa,40.8121834,0.5241968,El Sol de Santa Clara. El racó màgic.,Tarragona,"C/ Sto. Tomàs de Sta. Clara, 12"
Tortosa,40.8102804,0.5227524,Restaurant Botànic,Tarragona,"Carrer de Teodor González, 38"
Tortosa,40.8138245,0.5240343,Estudi,Tarragona,"Plaça dels Estudis, 6"
Tortosa,40.8081439,0.5203734999999999,TdeTapa Tortosa,Tarragona,"Av. de la Generalitat, 89"
Tortosa,40.8101171,0.521178,Lizarran,Tarragona,"Carrer de Teodor González, 26"
Tortosa,40.8104994,0.5205719999999999,La placeta Curto Berengué,Tarragona,"Plaça de Ramon Cabrera, 6-4"
Tortosa,40.8141333,0.524617,Cafè Mediterrani,Tarragona,"Plaça de Mossèn Sol, 2"
Tortosa,40.814096,0.5169612,Cafeteria Supersàtast,Tarragona,"Carrer de Tarragona, 6"
Tortosa,40.8046006,0.5194949999999999,Sabor Latino Bar-restaurante,Tarragona,"Carrer de Vergés Paulí, 29"
Tortosa,40.808011,0.510217,Estación de servicio Cepsa ESTADIO,Tarragona,C-12 PK: 17
Tortosa,40.8126487,0.5130178,Escola d'Hoteleria Institut Dertosa,Tarragona,Camí dels Codonyers
Tortosa,40.8156425,0.5281604999999999,La Taverna dels Romancers,Tarragona,"pujada de Sant Josep de la Muntanya, 5"
Tortosa,40.8102983,0.5218687,manolitos,Tarragona,"Carrer de Teodor González, 39"
Tortosa,40.8105107,0.5204970999999999,Casa Alberto,Tarragona,"Carrer Sant Pere, 7"
Tortosa,40.8063719,0.5218223,Restaurant Jordi’s,Tarragona,"Plaça de les Corts Catalanes, 4"
Tortosa,40.81689,0.52195,Bar Restaurant Renaixement 2,Tarragona,"Av. de Remolins, 6"
Tortosa,40.8041156,0.5192291,La Cuina d’Alqueza i Paco’s,Tarragona,"Carrer de Sant Enric d'Ossó, 24"
Tortosa,40.8036235,0.5237636999999999,Neda's Bar,Tarragona,"Avinguda Barcelona, 10"
Tortosa,40.8158333,0.5175,TANINS VINOTECA,Tarragona,"Carrer d'Arnes, 11"
Tortosa,40.8034662,0.5182917,Restaurant OPORTO,Tarragona,"C/Sebastián Joan, Carrer de Sebastià Juan Arbó, 22"
Tortosa,40.8100062,0.5225006999999999,Dmiquel Cuina De Temporada,Tarragona,"Carrer Argentina, 27"
Tortosa,40.81202,0.5224833999999999,Luna Bar,Tarragona,"C/ dels Mercaders, 14"
Tortosa,40.8042839,0.5174033,Nolla Restaurante,Tarragona,Carrer de Joan Miró i Ferrà
Tortosa,40.8147081,0.5189005999999999,BebeBirra Tortosa,Tarragona,"Av. de Catalunya, 20"
Tortosa,40.8134928,0.5223487,La Taverna,Tarragona,"Plaza Nuestra Señora de la Cinta, 8"
Tortosa,40.8105109,0.5215917999999999,BRASERIA new MONT CARO,Tarragona,"Carrer de Ricard Cirera, 1"
Tortosa,40.8160786,0.5224771,Bar Caribe,Tarragona,"Rambla Felip Pedrell, 114"
Tortosa,40.8141618,0.5156961999999999,Bar Trifasic,Tarragona,"Plaça 1 d'octubre, 1"
Tortosa,40.8141519,0.5190249,Terrassa Kronnos,Tarragona,"Passeig de l'Ebre, 12"
Tortosa,40.8158117,0.5226289,Bar Amado,Tarragona,"Carrer Santa Anna, 33"
Tortosa,40.8161913,0.5232773,Restaurant l'Assoc - Banys Àrabs Vells,Tarragona,"Carrer Major de Sant Jaume, 6"
Tortosa,40.7891446,0.5183846,Taberna CC,Tarragona,"186, Camí del Mig"
Tortosa,40.8248392,0.5116590999999999,Restaurant Forquilla i Ganivet,Tarragona,Plaça Immaculada
Tortosa,40.8121556,0.5202806,Bar Restaurant Cristal,Tarragona,"Carrer de la Llotja, 1"
Tortosa,40.810781,0.520489,Cafetería Pica Pica,Tarragona,"Plaça d'Espanya, 4"
Tortosa,40.7984123,0.5213971,McDonald's,Tarragona,"Pont de Tirant-lo Blanc, s/n Parcela 1 Plan Parcial Portal Ciutat Carrer del Nord"
Tortosa,40.8102804,0.5227523,GRUP MAUGAL SL,Tarragona,"Carrer de Teodor González, 38"
Tortosa,40.8158606,0.5138644,Ember's Burgers y Pizzas,Tarragona,"Av. de Catalunya, 85"
Tortosa,40.8153226,0.5171863,Telepizza Tortosa - Menjar a Domicili,Tarragona,"Av. de Catalunya, 48"
Tortosa,40.8130257,0.5215441,Al Noor Kebab Comidas Para Llevar,Tarragona,"Carrer del Bisbe Aznar, 15"
Tortosa,40.8161439,0.5160905,Pizza Star Restaurant,Tarragona,"Carrer d'Hernán Cortés, 28"
Tortosa,40.8151834,0.5177946,Taj Palaza,Tarragona,"Av. de Catalunya, 34"
Tortosa,40.8147727,0.5218242,Pak Tortosa,Tarragona,"Rambla Felip Pedrell, 80"
Tortosa,40.8112834,0.5207762,Pizza Bonici Tortosa,Tarragona,C. Pescadors
Tortosa,40.8138846,0.5438159,Cuinart Comida a domicilio,Tarragona,"Ctra. de la Simpàtica, 89"
Tortosa,40.7722097,0.5125483,Restaurant Sant Cristòfol,Tarragona,"Carrer de la Santa Cinta, 32"
Tortosa,40.809349,0.5197847999999999,Restaurante Alibaba,Tarragona,"Carrer de Vergés Paulí, 14"
Ulldecona,40.5967455,0.4470311999999999,La Pollera,Tarragona,"Carrer Major, 103"
Ulldecona,40.5969603,0.4432132,Cafetría-Bar Phoenix,Tarragona,"Plaça Catalunya, 13"
Ulldecona,40.5977418,0.4442708999999999,El Mosset d'Exequiel,Tarragona,"Carrer Cardenal Vidal i Barraquer, 2"
Ulldecona,40.5884927,0.4430622999999999,Perpebrots_ulldecona,Tarragona,T-332
Ulldecona,40.5972635,0.4474374,Bar La Plaça,Tarragona,"43550, Carrer Major, 90"
Ulldecona,40.5964903,0.4496805,Lo Paseo,Tarragona,"Passeig Estació, 39"
Ulldecona,40.596615,0.4439803,Bar lo negre,Tarragona,"Carrer Calvari, 55"
Ulldecona,40.5966983,0.4438361999999999,El Rebost,Tarragona,"Carrer Calvari, 57"
Ulldecona,40.5972867,0.4476393999999999,Kebab Ulldecona,Tarragona,"Carrer Major, 89"
Ulldecona,40.5975624,0.4430869999999999,Mont-Mar,Tarragona,"Plaça Catalunya, 7"
Ulldecona,40.6118953,0.4691319,CAL JUANJO,Tarragona,PARTIDA PLANS S/N
Ulldecona,40.5970156,0.4473465,Restaurant Celedoni,Tarragona,"Plaça de l'Església, 4"
Ulldecona,40.5959433,0.4454923999999999,Cafetería-Bar-Restaurante Alameda,Tarragona,"Plaça Sales i Ferré, 11, BAJO"
Ulldecona,40.5989057,0.4430267,La Masia,Tarragona,"Carrer Comte Montemolín, 22"
Ulldecona,40.596964,0.4470476,La TasKa De Sisco,Tarragona,"Carrer Muntaner, 1"
Ulldecona,40.5963562,0.4464591,Oco! Bar gastronòmic,Tarragona,"Carrer Major, 118"
